     3.02           N: GNSS NAV DATA    G: GPS              RINEX VERSION / TYPE
Spider v7.5.1.8670  SMO                 20251027 030347 UTC PGM / RUN BY / DATE
GPSA   2.0489D-08 -7.4506D-09 -1.1921D-07  5.9605D-08       IONOSPHERIC CORR
GPSB   1.2493D+05 -3.2768D+04 -2.6214D+05  1.3107D+05       IONOSPHERIC CORR
GPUT -2.7939677238D-09-8.881784197D-15 319488 2390          TIME SYSTEM CORR
    18    18  2185     7                                    LEAP SECONDS
                                                            END OF HEADER
G01 2025 10 26 18 00 00 3.537843003869D-04 9.094947017729D-13 0.000000000000D+00
     1.070000000000D+02 1.034375000000D+01 4.550546606197D-09 3.062178907837D+00
     5.997717380524D-07 9.287951979786D-04 2.272427082062D-06 5.153647975922D+03
     6.480000000000D+04 0.000000000000D+00-8.881476732241D-01 3.352761268616D-08
     9.587271770752D-01 3.330937500000D+02-7.948086150834D-02-8.303202569948D-09
     3.571577278719D-12 1.000000000000D+00 2.390000000000D+03 0.000000000000D+00
     2.000000000000D+00 0.000000000000D+00-8.847564458847D-09 1.070000000000D+02
     5.754000000000D+04                   
G02 2025 10 26 16 00 00-4.187831655145D-05 8.640199666843D-12 0.000000000000D+00
     5.900000000000D+01 2.746875000000D+01 4.301965006448D-09-2.889369968851D+00
     1.568347215652D-06 1.671801065095D-02 1.635402441025D-06 5.153647998810D+03
     5.760000000000D+04 5.587935447693D-09-1.051273958283D+00 2.384185791016D-07
     9.643118434361D-01 3.444687500000D+02-9.113526904576D-01-7.949974012433D-09
     7.286017622565D-11 1.000000000000D+00 2.390000000000D+03 0.000000000000D+00
     2.000000000000D+00 0.000000000000D+00-1.769512891769D-08 5.900000000000D+01
     5.034000000000D+04                   
G03 2025 10 26 18 00 00 6.556902080774D-04-6.480149750132D-12 0.000000000000D+00
     7.600000000000D+01-8.225000000000D+01 3.670510118070D-09 7.646819867484D-01
    -4.500150680542D-06 6.334047415294D-03 6.077811121941D-06 5.153694326401D+03
     6.480000000000D+04-5.774199962616D-08 9.448038440153D-02-2.048909664154D-08
     9.920335705001D-01 2.779687500000D+02 1.232237809754D+00-7.760680098556D-09
     1.785788639359D-12 1.000000000000D+00 2.390000000000D+03 0.000000000000D+00
     2.000000000000D+00 0.000000000000D+00 1.396983861923D-09 7.600000000000D+01
     5.754000000000D+04                   
G04 2025 10 26 20 00 00 1.921504735947D-05 3.183231456205D-12 0.000000000000D+00
     1.540000000000D+02-4.334375000000D+01 4.227675987067D-09-1.285733789299D+00
    -2.406537532806D-06 3.600853029639D-03 8.249655365944D-06 5.153769706726D+03
     7.200000000000D+04 3.725290298462D-08 1.166493301357D+00-2.048909664154D-08
     9.689950128632D-01 2.223125000000D+02-2.967978154375D+00-7.739965113274D-09
     4.982350643168D-10 1.000000000000D+00 2.390000000000D+03 0.000000000000D+00
     2.000000000000D+00 0.000000000000D+00-4.656612873077D-09 9.220000000000D+02
     6.474000000000D+04                   
G05 2025 10 27 02 00 00-2.224175259471D-04-7.958078640513D-13 0.000000000000D+00
     6.100000000000D+01-8.890625000000D+01 4.003023690302D-09 2.339427652541D+00
    -4.645437002182D-06 5.554164992645D-03 5.098059773445D-06 5.153638380051D+03
     9.360000000000D+04 9.872019290924D-08 3.620838694465D-02-3.725290298462D-09
     9.786892121398D-01 2.903125000000D+02 1.441971285286D+00-7.844970006943D-09
    -1.482204636805D-10 1.000000000000D+00 2.390000000000D+03 0.000000000000D+00
     2.000000000000D+00 0.000000000000D+00-1.071020960808D-08 6.100000000000D+01
     8.634000000000D+04                   
G06 2025 10 26 22 00 00-5.582938902080D-04-8.867573342286D-12 0.000000000000D+00
     4.200000000000D+01 2.128125000000D+01 3.999452324877D-09-1.937010423596D+00
     1.113861799240D-06 3.588938037865D-03 2.758577466011D-06 5.153668731689D+03
     7.920000000000D+04-8.754432201385D-08-9.413227441335D-01 2.235174179077D-08
     9.877197952027D-01 3.422187500000D+02-7.016385035000D-01-8.030691667216D-09
    -6.714565708998D-11 1.000000000000D+00 2.390000000000D+03 0.000000000000D+00
     2.000000000000D+00 0.000000000000D+00 3.725290298462D-09 4.200000000000D+01
     7.194000000000D+04                   
G07 2025 10 26 16 00 00-9.718583896756D-05-5.798028723802D-12 0.000000000000D+00
     7.800000000000D+01-7.187500000000D+00 5.254504387153D-09 2.020746341796D-01
    -1.993030309677D-07 1.991551346146D-02 6.306916475296D-06 5.153664104462D+03
     5.760000000000D+04-1.937150955200D-07 2.176626607818D+00 1.564621925354D-07
     9.505040662753D-01 2.548750000000D+02-2.020609539938D+00-8.606787282872D-09
    -1.060758494931D-10 1.000000000000D+00 2.390000000000D+03 0.000000000000D+00
     2.000000000000D+00 0.000000000000D+00-1.071020960808D-08 7.800000000000D+01
     5.034000000000D+04                   
G08 2025 10 26 16 00 00 5.261814221740D-04-2.046363078989D-12 0.000000000000D+00
     6.400000000000D+01 1.001875000000D+02 4.579119305959D-09 3.071770448300D+00
     5.125999450684D-06 1.088582340162D-02 7.389113306999D-06 5.153638195038D+03
     5.760000000000D+04-3.725290298462D-08-2.056921783826D+00-8.940696716309D-08
     9.453499791297D-01 2.297187500000D+02 4.684132787904D-01-7.953188330134D-09
    -3.571577278719D-12 1.000000000000D+00 2.390000000000D+03 0.000000000000D+00
     2.800000000000D+00 0.000000000000D+00 4.656612873077D-09 6.400000000000D+01
     5.034000000000D+04                   
G09 2025 10 26 22 00 00 7.565007545054D-04 3.524291969370D-12 0.000000000000D+00
     2.600000000000D+01-5.387500000000D+01 4.278035259375D-09 4.834123701227D-01
    -2.831220626831D-06 3.537581535056D-03 8.314847946167D-06 5.153622894287D+03
     7.920000000000D+04-1.117587089539D-08 1.103087020276D+00-1.862645149231D-08
     9.630932531569D-01 2.181875000000D+02 2.039757699547D+00-7.875684993053D-09
     4.378753748480D-10 1.000000000000D+00 2.390000000000D+03 0.000000000000D+00
     2.000000000000D+00 0.000000000000D+00 4.656612873077D-10 2.600000000000D+01
     7.194000000000D+04                   
G10 2025 10 27 01 59 44-5.525564774871D-04-5.911715561524D-12 0.000000000000D+00
     4.600000000000D+01-8.659375000000D+01 3.556933858562D-09-2.238720107176D+00
    -4.524365067482D-06 1.073382736649D-02 5.956739187241D-06 5.153651704788D+03
     9.358400000000D+04 5.587935447693D-08 9.175232452689D-02-1.229345798492D-07
     9.915979383657D-01 2.800937500000D+02-2.307600989049D+00-7.477454211369D-09
     1.071473205300D-12 1.000000000000D+00 2.390000000000D+03 0.000000000000D+00
     2.000000000000D+00 0.000000000000D+00 2.328306436539D-09 4.600000000000D+01
     8.631000000000D+04                   
G11 2025 10 27 00 00 00-5.677235312760D-04 1.386979420204D-11 0.000000000000D+00
     2.020000000000D+02 2.368750000000D+01 4.553760923898D-09 1.167401546732D-01
     1.227483153343D-06 2.252091886476D-03 2.313405275345D-06 5.153742160797D+03
     8.640000000000D+04-5.587935447693D-09-9.197962747154D-01 2.421438694000D-08
     9.645581417868D-01 3.371562500000D+02-2.320413405527D+00-8.343204349615D-09
    -1.167905772093D-10 1.000000000000D+00 2.390000000000D+03 0.000000000000D+00
     2.000000000000D+00 0.000000000000D+00-8.847564458847D-09 2.020000000000D+02
     7.914000000000D+04                   
G12 2025 10 27 02 00 00-6.022066809237D-04-7.958078640513D-13 0.000000000000D+00
     3.200000000000D+01 2.996875000000D+01 4.644836515411D-09-1.486216983657D+00
     1.804903149605D-06 8.859318797477D-03 8.748844265938D-06 5.153610269547D+03
     9.360000000000D+04 9.313225746155D-09-2.989876520975D+00 1.918524503708D-07
     9.600400275549D-01 2.137500000000D+02 1.520849538654D+00-7.871756579902D-09
    -2.567964174638D-10 1.000000000000D+00 2.390000000000D+03 0.000000000000D+00
     2.000000000000D+00 0.000000000000D+00-1.257285475731D-08 3.200000000000D+01
     8.634000000000D+04                   
G13 2025 10 27 02 00 00 6.957040168345D-04-9.094947017729D-13 0.000000000000D+00
     7.900000000000D+01-4.703125000000D+01 4.030525246890D-09 1.744016573976D+00
    -2.486631274223D-06 9.803253924474D-03 8.385628461838D-06 5.153678880692D+03
     9.360000000000D+04-1.918524503708D-07 1.276396151434D+00-9.499490261078D-08
     9.747434660693D-01 2.264687500000D+02 1.007015756351D+00-7.729250128818D-09
     4.053740398913D-10 1.000000000000D+00 2.390000000000D+03 0.000000000000D+00
     2.000000000000D+00 0.000000000000D+00-1.164153218269D-08 7.900000000000D+01
     8.634000000000D+04                   
G14 2025 10 26 20 00 00 7.088133133948D-04 3.410605131648D-12 0.000000000000D+00
     1.260000000000D+02 1.878125000000D+01 5.044495932083D-09 1.467244045061D+00
     1.108273863792D-06 6.260663853027D-03 8.732080459595D-06 5.153639339447D+03
     7.200000000000D+04 0.000000000000D+00-3.042294277231D+00 1.303851604462D-07
     9.433724679128D-01 2.030625000000D+02-2.764435556511D+00-8.186055389103D-09
    -4.564475741820D-10 1.000000000000D+00 2.390000000000D+03 0.000000000000D+00
     2.000000000000D+00 0.000000000000D+00-7.916241884232D-09 3.820000000000D+02
     6.474000000000D+04                   
G15 2025 10 27 02 00 00 3.518569283187D-04 3.637978807092D-12 0.000000000000D+00
     6.500000000000D+01-6.790625000000D+01 4.826629762533D-09 1.017165155754D+00
    -3.658235073090D-06 1.668225892354D-02 8.560717105865D-06 5.153649951935D+03
     9.360000000000D+04-2.440065145493D-07 9.620147870230D-01-1.769512891769D-07
     9.408877703123D-01 2.110625000000D+02 1.478543596510D+00-8.332490253338D-09
     2.428672540855D-10 1.000000000000D+00 2.390000000000D+03 0.000000000000D+00
     2.000000000000D+00 0.000000000000D+00-1.071020960808D-08 6.500000000000D+01
     8.634000000000D+04                   
